NORAD_CAT_ID,OBJECT_NAME,OBJECT_TYPE,EPOCH,MEAN_MOTION,ECCENTRICITY,INCLINATION,RA_OF_ASC_NODE,ARG_OF_PERICENTER,MEAN_ANOMALY,BSTAR,MEAN_MOTION_DOT,MEAN_MOTION_DDOT,TLE_LINE0,TLE_LINE1,TLE_LINE2,SEMIMAJOR_AXIS,PERIOD,APOGEE,PERIGEE,DECAYED
55407.0,STARLINK-5019,PAYLOAD,2023-09-24 18:32:08,14.98325969,0.0002724,70.0019,165.9984,262.3443,97.7407,6.5598e-05,6.9e-06,0.0,0 STARLINK-5019,1 55407U 23014S   23267.77232293  .00000690  00000-0  65598-4 0  9998,2 55407  70.0019 165.9984 0002724 262.3443  97.7407 14.98325969 36763,6950.205,96.107,573.964,570.177,0.0
55407.0,STARLINK-5019,PAYLOAD,2023-09-24 21:44:24,14.98325663,0.0002703,70.002,165.6618,261.0181,99.0672,7.8187e-05,8.4e-06,0.0,0 STARLINK-5019,1 55407U 23014S   23267.90584299  .00000840  00000-0  78187-4 0  9994,2 55407  70.0020 165.6618 0002703 261.0181  99.0672 14.98325663 37725,6950.206,96.107,573.95,570.193,0.0
55407.0,STARLINK-5019,PAYLOAD,2023-09-25 10:33:28,14.98334665,0.0002805,70.0016,164.3149,270.3067,89.777,0.00010836,1.2e-05,0.0,0 STARLINK-5019,1 55407U 23014S   23268.43991751  .00001200  00000-0  10836-3 0  9995,2 55407  70.0016 164.3149 0002805 270.3067  89.7770 14.98334665 37800,6950.178,96.107,573.993,570.094,0.0
55407.0,STARLINK-5019,PAYLOAD,2023-09-25 18:34:09,14.98330728,0.0002879,70.0017,163.4738,267.9974,92.0855,0.00011854,1.322e-05,0.0,0 STARLINK-5019,1 55407U 23014S   23268.77371790  .00001322  00000-0  11854-3 0  9993,2 55407  70.0017 163.4738 0002879 267.9974  92.0855 14.98330728 36913,6950.191,96.107,574.057,570.055,0.0
55407.0,STARLINK-5019,PAYLOAD,2023-09-25 21:46:25,14.98332622,0.0002943,70.0017,163.1375,270.1902,89.892,8.3341e-05,9.02e-06,0.0,0 STARLINK-5019,1 55407U 23014S   23268.90723768  .00000902  00000-0  83341-4 0  9998,2 55407  70.0017 163.1375 0002943 270.1902  89.8920 14.98332622 37874,6950.185,96.107,574.095,570.004,0.0
55407.0,STARLINK-5019,PAYLOAD,2023-09-26 02:34:49,14.98337124,0.0002671,70.0015,162.6305,265.4931,94.5923,0.00016098,1.829e-05,0.0,0 STARLINK-5019,1 55407U 23014S   23269.10751204  .00001829  00000-0  16098-3 0  9990,2 55407  70.0015 162.6305 0002671 265.4931  94.5923 14.98337124 36963,6950.171,96.107,573.892,570.179,0.0
55407.0,STARLINK-5019,PAYLOAD,2023-09-26 18:36:11,14.98322805,0.0003031,70.0007,160.9478,267.8732,92.208,-0.00012755,-1.614e-05,0.0,0 STARLINK-5019,1 55407U 23014S   23269.77512909 -.00001614  00000-0 -12755-3 0  9990,2 55407  70.0007 160.9478 0003031 267.8732  92.2080 14.98322805 37063,6950.215,96.107,574.187,569.974,0.0
55407.0,STARLINK-5019,PAYLOAD,2023-09-26 20:12:19,14.98322378,0.0003052,70.0006,160.7796,267.7777,92.3032,-0.00013043,-1.649e-05,0.0,0 STARLINK-5019,1 55407U 23014S   23269.84188964 -.00001649  00000-0 -13043-3 0  9997,2 55407  70.0006 160.7796 0003052 267.7777  92.3032 14.98322378 38013,6950.216,96.107,574.203,569.96,0.0
55407.0,STARLINK-5019,PAYLOAD,2023-09-27 10:37:32,14.98323264,0.0002955,70.0008,159.2638,269.996,90.0861,-0.00013854,-1.745e-05,0.0,0 STARLINK-5019,1 55407U 23014S   23270.44273210 -.00001745  00000-0 -13854-3 0  9991,2 55407  70.0008 159.2638 0002955 269.9960  90.0861 14.98323264 38102,6950.214,96.107,574.133,570.025,0.0
55407.0,STARLINK-5019,PAYLOAD,2023-09-27 18:38:12,14.98323047,0.0003033,70.0004,158.4224,269.8393,90.2419,-0.00011792,-1.499e-05,0.0,0 STARLINK-5019,1 55407U 23014S   23270.77653262 -.00001499  00000-0 -11792-3 0  9991,2 55407  70.0004 158.4224 0003033 269.8393  90.2419 14.98323047 37218,6950.214,96.107,574.187,569.971,0.0
55407.0,STARLINK-5019,PAYLOAD,2023-09-28 15:27:56,14.98328201,0.0003299,70.0001,156.2344,269.2511,90.827,0.00014288,1.612e-05,0.0,0 STARLINK-5019,1 55407U 23014S   23271.64440433  .00001612  00000-0  14288-3 0  9990,2 55407  70.0001 156.2344 0003299 269.2511  90.8270 14.98328201 38280,6950.198,96.107,574.356,569.771,0.0
55407.0,STARLINK-5019,PAYLOAD,2023-09-28 17:04:04,14.98330383,0.0003325,70.0,156.0668,271.0915,88.9863,0.00016485,1.875e-05,0.0,0 STARLINK-5019,1 55407U 23014S   23271.71116246  .00001875  00000-0  16485-3 0  9992,2 55407  70.0000 156.0668 0003325 271.0915  88.9863 14.98330383 37352,6950.192,96.107,574.368,569.746,0.0
55407.0,STARLINK-5019,PAYLOAD,2023-09-28 21:52:28,14.98333003,0.0003286,70.0003,155.5619,271.3088,88.7695,0.00018755,2.146e-05,0.0,0 STARLINK-5019,1 55407U 23014S   23271.91144017  .00002146  00000-0  18755-3 0  9995,2 55407  70.0003 155.5619 0003286 271.3088  88.7695 14.98333003 38326,6950.184,96.107,574.332,569.765,0.0
55407.0,STARLINK-5019,PAYLOAD,2023-09-29 02:40:52,14.9833681,0.000324,70.0003,155.0566,270.7433,89.3355,0.00022106,2.546e-05,0.0,0 STARLINK-5019,1 55407U 23014S   23272.11171624  .00002546  00000-0  22106-3 0  9991,2 55407  70.0003 155.0566 0003240 270.7433  89.3355 14.98336810 37417,6950.172,96.107,574.289,569.785,0.0
55407.0,STARLINK-5019,PAYLOAD,2023-09-29 18:42:13,14.98328992,0.0002985,70.001,153.3742,261.7198,98.3623,0.00012203,1.363e-05,0.0,0 STARLINK-5019,1 55407U 23014S   23272.77932267  .00001363  00000-0  12203-3 0  9994,2 55407  70.0010 153.3742 0002985 261.7198  98.3623 14.98328992 37516,6950.196,96.107,574.136,569.986,0.0
55407.0,STARLINK-5019,PAYLOAD,2023-09-30 02:42:53,14.98331673,0.0002997,70.0011,152.5334,263.1653,96.9165,0.00013333,1.498e-05,0.0,0 STARLINK-5019,1 55407U 23014S   23273.11312075  .00001498  00000-0  13333-3 0  9996,2 55407  70.0011 152.5334 0002997 263.1653  96.9165 14.98331673 38505,6950.188,96.107,574.136,569.97,0.0
55407.0,STARLINK-5019,PAYLOAD,2023-09-30 09:07:26,14.98324629,0.0002548,70.0029,151.8613,270.5377,89.549,2.8301e-05,2.45e-06,0.0,0 STARLINK-5019,1 55407U 23014S   23273.38016959  .00000245  00000-0  28301-4 0  9998,2 55407  70.0029 151.8613 0002548 270.5377  89.5490 14.98324629 37605,6950.21,96.107,573.845,570.304,0.0
55407.0,STARLINK-5019,PAYLOAD,2023-10-01 01:08:48,14.98305578,0.000336,69.9999,150.1762,266.3323,93.7452,-0.00043867,-5.32e-05,0.0,0 STARLINK-5019,1 55407U 23014S   23274.04778860 -.00005320  00000-0 -43867-3 0  9992,2 55407  69.9999 150.1762 0003360 266.3323  93.7452 14.98305578 37700,6950.268,96.109,574.469,569.798,0.0
55407.0,STARLINK-5019,PAYLOAD,2023-10-01 09:09:26,14.98338126,0.0003173,70.0006,149.3334,269.6374,90.4421,-3.0183e-05,-4.53e-06,0.0,0 STARLINK-5019,1 55407U 23014S   23274.38155830 -.00000453  00000-0 -30183-4 0  9995,2 55407  70.0006 149.3334 0003173 269.6374  90.4421 14.98338126 37751,6950.168,96.106,574.238,569.827,0.0
55407.0,STARLINK-5019,PAYLOAD,2023-10-01 21:58:30,14.98336202,0.000315,70.0,147.987,270.5116,89.5682,0.00010459,1.155e-05,0.0,0 STARLINK-5019,1 55407U 23014S   23274.91563488  .00001155  00000-0  10459-3 0  9997,2 55407  70.0000 147.9870 0003150 270.5116  89.5682 14.98336202 38778,6950.174,96.107,574.228,569.849,0.0
55407.0,STARLINK-5019,PAYLOAD,2023-10-02 09:11:27,14.98331888,0.0002743,70.0007,146.8094,269.2015,90.8829,-6.5001e-05,-8.68e-06,0.0,0 STARLINK-5019,1 55407U 23014S   23275.38296133 -.00000868  00000-0 -65001-4 0  9995,2 55407  70.0007 146.8094 0002743 269.2015  90.8829 14.98331888 37908,6950.187,96.107,573.958,570.146,0.0
55407.0,STARLINK-5019,PAYLOAD,2023-10-02 20:24:24,14.98323454,0.0002806,70.0007,145.6312,270.3507,89.733,5.0897e-05,5.14e-06,0.0,0 STARLINK-5019,1 55407U 23014S   23275.85028427  .00000514  00000-0  50897-4 0  9999,2 55407  70.0007 145.6312 0002806 270.3507  89.7330 14.98323454 38913,6950.213,96.107,574.028,570.128,0.0
55407.0,STARLINK-5019,PAYLOAD,2023-10-03 09:13:29,14.98321941,0.0002568,70.0004,144.2844,280.9955,79.0915,7.6873e-05,8.24e-06,0.0,0 STARLINK-5019,1 55407U 23014S   23276.38436760  .00000824  00000-0  76873-4 0  9997,2 55407  70.0004 144.2844 0002568 280.9955  79.0915 14.98321941 38059,6950.218,96.108,573.868,570.298,0.0
55407.0,STARLINK-5019,PAYLOAD,2023-10-03 18:50:17,14.98330521,0.0002953,70.0,143.2748,269.7653,90.3168,-4.1342e-05,-5.86e-06,0.0,0 STARLINK-5019,1 55407U 23014S   23276.78492279 -.00000586  00000-0 -41342-4 0  9998,2 55407  70.0000 143.2748 0002953 269.7653  90.3168 14.98330521 38112,6950.191,96.107,574.109,570.004,0.0
55407.0,STARLINK-5019,PAYLOAD,2023-10-03 20:26:25,14.98329947,0.0002934,69.9999,143.1062,269.5079,90.5743,-6.7098e-05,-8.93e-06,0.0,0 STARLINK-5019,1 55407U 23014S   23276.85168386 -.00000893  00000-0 -67098-4 0  9992,2 55407  69.9999 143.1062 0002934 269.5079  90.5743 14.98329947 39069,6950.193,96.107,574.097,570.019,0.0
55407.0,STARLINK-5019,PAYLOAD,2023-10-04 18:52:17,14.98332265,0.0002969,69.9994,140.749,265.9914,94.0905,8.4343e-05,9.14e-06,0.0,0 STARLINK-5019,1 55407U 23014S   23277.78631627  .00000914  00000-0  84343-4 0  9992,2 55407  69.9994 140.7490 0002969 265.9914  94.0905 14.98332265 38265,6950.186,96.107,574.114,569.987,0.0
55407.0,STARLINK-5019,PAYLOAD,2023-10-04 22:04:33,14.98336813,0.0003122,69.9991,140.4129,267.8456,92.2345,7.0187e-05,7.45e-06,0.0,0 STARLINK-5019,1 55407U 23014S   23277.91983371  .00000745  00000-0  70187-4 0  9996,2 55407  69.9991 140.4129 0003122 267.8456  92.2345 14.98336813 39220,6950.172,96.107,574.207,569.867,0.0
55407.0,STARLINK-5019,PAYLOAD,2023-10-05 07:41:22,14.98330801,0.0002811,70.0,139.4033,268.1553,91.9284,2.4764e-05,2.03e-06,0.0,0 STARLINK-5019,1 55407U 23014S   23278.32039845  .00000203  00000-0  24764-4 0  9999,2 55407  70.0000 139.4033 0002811 268.1553  91.9284 14.98330801 39287,6950.19,96.107,574.009,570.102,0.0
55407.0,STARLINK-5019,PAYLOAD,2023-10-05 18:54:19,14.98327552,0.0002709,70.0004,138.2263,268.2666,91.8183,2.9636e-06,-5.8e-07,0.0,0 STARLINK-5019,1 55407U 23014S   23278.78772156 -.00000058  00000-0  29636-5 0  9991,2 55407  70.0004 138.2263 0002709 268.2666  91.8183 14.98327552 38415,6950.2,96.107,573.948,570.183,0.0
55407.0,STARLINK-5019,PAYLOAD,2023-10-05 22:06:35,14.98326184,0.0002466,70.0005,137.8893,255.4751,104.6135,1.9434e-05,1.39e-06,0.0,0 STARLINK-5019,1 55407U 23014S   23278.92124221  .00000139  00000-0  19434-4 0  9994,2 55407  70.0005 137.8893 0002466 255.4751 104.6135 14.98326184 39379,6950.205,96.107,573.784,570.356,0.0
